{"type": "FeatureCollection", "features": [{"type": "Feature", "properties": {"name": "Sumatran Fault", "segment": "Semangko Barat-B", "region": "Sumatra", "mmax": 7.3, "sliprate_m": "8", "length_km": 113.0, "type": "SS91"}, "geometry": {"type": "LineString", "coordinates": [[104.35652, -5.27485], [104.36171, -5.29605], [104.38583, -5.31476], [104.4218, -5.33576], [104.45804, -5.36923], [104.49744, -5.40076], [104.53307, -5.43678], [104.57832, -5.46862], [104.62508, -5.49867], [104.67753, -5.53655], [104.74974, -5.59102], [104.79906, -5.62168], [104.88525, -5.6741], [104.94546, -5.72462], [105.01631, -5.78254], [105.06502, -5.81575], [105.16031, -5.88652]]}}, {"type": "Feature", "properties": {"name": "Sumatran Fault", "segment": "Semangko Timur-A", "region": "Sumatra", "mmax": 6.1, "sliprate_m": "3", "length_km": 94.0, "type": "SS92"}, "geometry": {"type": "LineString", "coordinates": [[104.25787, -5.20948], [104.25275, -5.23452], [104.26022, -5.25913], [104.29165, -5.29161], [104.3648, -5.36033], [104.41879, -5.42275], [104.46953, -5.48611], [104.50165, -5.52651], [104.54393, -5.57666], [104.5757, -5.6131], [104.60928, -5.64739], [104.66645, -5.69291], [104.7016, -5.72241], [104.7355, -5.76797], [104.79001, -5.85161]]}}, {"type": "Feature", "properties": {"name": "Sumatran Fault", "segment": "Semangko Timur-B", "region": "Sumatra", "mmax": 7.5, "sliprate_m": "3", "length_km": 85.0, "type": "SS93"}, "geometry": {"type": "LineString", "coordinates": [[104.66574, -5.75236], [104.71881, -5.81862], [104.76541, -5.90554], [104.78913, -6.01455], [104.82767, -6.27945], [104.84002, -6.40718], [104.83889, -6.48883]]}}, {"type": "Feature", "properties": {"name": "Sumatran Fault", "segment": "Ujung Kulon A", "region": "Sumatra", "mmax": 7.2, "sliprate_m": "10", "length_km": 79.0, "type": "SS89"}, "geometry": {"type": "LineString", "coordinates": [[104.90396, -6.28696], [104.94298, -6.40881], [104.97501, -6.51828], [105.01845, -6.59602], [105.0607, -6.64669], [105.13034, -6.79423], [105.21195, -6.93009]]}}, {"type": "Feature", "properties": {"name": "Sumatran Fault", "segment": "Sunda Strait Graben", "region": "Sumatra", "mmax": 7.3, "sliprate_m": "3", "length_km": 84.0, "type": "N60"}, "geometry": {"type": "LineString", "coordinates": [[105.07078, -6.60503], [105.1225, -6.55313], [105.17906, -6.48897], [105.21887, -6.40258], [105.24354, -6.29532], [105.25289, -6.21604], [105.23972, -6.08248], [105.21418, -5.97665], [105.1746, -5.91349]]}}, {"type": "Feature", "properties": {"name": "Sumatran Fault", "segment": "Ujung Kulon B", "region": "Sumatra", "mmax": 7.2, "sliprate_m": "10", "length_km": 152.0, "type": "SS90"}, "geometry": {"type": "LineString", "coordinates": [[105.22539, -7.00156], [105.29583, -7.09607], [105.42827, -7.2562], [105.54819, -7.40855], [105.59869, -7.47815], [105.66573, -7.55075], [105.76932, -7.63495], [105.86735, -7.70631], [106.18982, -7.97418]]}}, {"type": "Feature", "properties": {"name": "Lombok Strait Strikeslip Fault", "segment": "Lombok Central", "region": "NT-Banda", "mmax": 7.5, "sliprate_m": "0.5", "length_km": 134.0, "type": "SS90"}, "geometry": {"type": "LineString", "coordinates": [[115.66464, -9.06514], [115.62575, -9.16122], [115.6063, -9.21612], [115.58343, -9.28589], [115.57199, -9.38769], [115.54111, -9.44373], [115.47934, -9.5135], [115.40157, -9.67249], [115.39814, -9.67363], [115.29863, -9.86807], [115.14307, -10.12542]]}}, {"type": "Feature", "properties": {"name": "Flores Backarc Thrust", "segment": "Bali", "region": "NT-Banda", "mmax": 7.6, "sliprate_m": "7", "length_km": 153.0, "type": "R45S"}, "geometry": {"type": "LineString", "coordinates": [[115.77361, -8.18168], [115.66595, -8.11857], [115.58959, -8.07381], [115.54315, -8.04811], [115.45934, -8.01949], [115.37758, -8.00723], [115.22429, -7.98475], [115.16706, -7.97861], [115.11391, -7.97248], [115.0853, -7.97248], [114.93969, -7.99443], [114.85379, -8.05654], [114.6491, -8.05994], [114.58181, -8.04312], [114.47461, -8.01632]]}}, {"type": "Feature", "properties": {"name": "Mataram Fault", "segment": "Tambakbayan", "region": "Java", "mmax": 6.1, "sliprate_m": "1", "length_km": 14.0, "type": "SS-LL90"}, "geometry": {"type": "LineString", "coordinates": [[110.35049, -7.76515], [110.36856, -7.7651], [110.39241, -7.76735], [110.40576, -7.76757], [110.41265, -7.76876], [110.42136, -7.76933], [110.43038, -7.77089], [110.43906, -7.77196], [110.44451, -7.77261], [110.44921, -7.7723], [110.45387, -7.77214], [110.4602, -7.77194], [110.46355, -7.7724], [110.4682, -7.77304], [110.47195, -7.77355], [110.47674, -7.77427], [110.47926, -7.77466]]}}, {"type": "Feature", "properties": {"name": "Mataram Fault", "segment": "Dengkeng", "region": "Java", "mmax": 6.2, "sliprate_m": "1", "length_km": 15.0, "type": "SS-LL90"}, "geometry": {"type": "LineString", "coordinates": [[110.50975, -7.76674], [110.52024, -7.76835], [110.52607, -7.76886], [110.53317, -7.77036], [110.54695, -7.77328], [110.55305, -7.77457], [110.55776, -7.77557], [110.5626, -7.7772], [110.56973, -7.77959], [110.57767, -7.78226], [110.58207, -7.78404], [110.58861, -7.78669], [110.59709, -7.78953], [110.60775, -7.79185], [110.61799, -7.79356], [110.62403, -7.79441], [110.62836, -7.79501], [110.64487, -7.79731]]}}, {"type": "Feature", "properties": {"name": "Java Back-arc Thrust", "segment": "Ciremai", "region": "Java", "mmax": 6.7, "sliprate_m": "2", "length_km": 43.0, "type": "R45SW"}, "geometry": {"type": "MultiLineString", "coordinates": [[[108.58224, -6.79527], [108.57762, -6.79335], [108.57321, -6.79207], [108.5646, -6.79056], [108.54949, -6.78438], [108.53835, -6.78265], [108.52882, -6.78157], [108.52349, -6.77731], [108.51576, -6.77437]], [[108.56599, -6.77771], [108.55369, -6.77535], [108.54195, -6.77487], [108.52862, -6.77503], [108.51576, -6.77437]], [[108.50453, -6.77764], [108.49822, -6.77719], [108.49568, -6.77561]], [[108.50453, -6.77764], [108.49568, -6.77561]], [[108.49568, -6.77561], [108.48723, -6.77216]], [[108.49568, -6.77561], [108.49284, -6.77384], [108.48723, -6.77216]], [[108.51576, -6.77437], [108.50453, -6.77764]], [[108.48723, -6.77216], [108.4788, -6.76967]], [[108.48723, -6.77216], [108.48484, -6.77144], [108.4788, -6.76967]], [[108.4788, -6.76967], [108.46821, -6.76757]], [[108.4788, -6.76967], [108.47392, -6.76824], [108.46821, -6.76757]], [[108.46821, -6.76757], [108.45518, -6.76603], [108.4434, -6.76681], [108.4202, -6.77201], [108.39837, -6.77988], [108.39165, -6.78077], [108.38146, -6.78098], [108.37291, -6.78058], [108.36466, -6.78603], [108.35485, -6.79227], [108.34622, -6.79941], [108.33492, -6.80209], [108.32897, -6.80417], [108.31737, -6.80417], [108.30815, -6.80149], [108.3025, -6.8003], [108.29477, -6.80179]]]}}, {"type": "Feature", "properties": {"name": "Java Back-arc Thrust", "segment": "Cisanggarung", "region": "Java", "mmax": 6.5, "sliprate_m": "2", "length_km": 19.0, "type": "R45SW"}, "geometry": {"type": "LineString", "coordinates": [[108.76046, -6.99566], [108.76065, -6.99143], [108.76035, -6.98296], [108.75818, -6.97652], [108.74925, -6.96565], [108.73593, -6.95204], [108.72143, -6.93979], [108.71113, -6.93246], [108.69796, -6.92495], [108.68647, -6.91914], [108.68006, -6.91386], [108.67314, -6.90774], [108.65948, -6.89768], [108.64477, -6.89169], [108.63277, -6.88689]]}}, {"type": "Feature", "properties": {"name": "Ciremai Fault", "segment": "Ciremai", "region": "Java", "mmax": 6.6, "sliprate_m": "0.5", "length_km": 20.0, "type": "SS90"}, "geometry": {"type": "LineString", "coordinates": [[108.27365, -6.87793], [108.29753, -6.88931], [108.33752, -6.90751], [108.34043, -6.90865], [108.34872, -6.91319], [108.35477, -6.91659], [108.36621, -6.9198], [108.37452, -6.92209], [108.3808, -6.92257], [108.38709, -6.92463], [108.39516, -6.92804], [108.40098, -6.93257], [108.40657, -6.93619], [108.41443, -6.93825], [108.41959, -6.93941], [108.42499, -6.93921], [108.42949, -6.93744], [108.43691, -6.9368], [108.44252, -6.93886], [108.44903, -6.93912], [108.45599, -6.9405], [108.4634, -6.94189], [108.47058, -6.94507], [108.47843, -6.94803], [108.48696, -6.9501]]}}, {"type": "Feature", "properties": {"name": "Tampomas", "segment": "Tampomas", "region": "Java", "mmax": 5.6, "sliprate_m": "0.5", "length_km": 8.0, "type": "N60"}, "geometry": {"type": "LineString", "coordinates": [[107.99781, -6.75043], [107.99165, -6.75084], [107.98941, -6.75093], [107.98605, -6.75136], [107.98203, -6.75122], [107.97934, -6.75121], [107.97418, -6.75408], [107.96956, -6.7583], [107.9655, -6.76465], [107.963, -6.77034], [107.96129, -6.77492], [107.95824, -6.78038], [107.95485, -6.78472], [107.95068, -6.7904], [107.94696, -6.79373]]}}, {"type": "Feature", "properties": {"name": "Lembang Fault", "segment": "Lembang", "region": "Java", "mmax": 6.6, "sliprate_m": "3.45", "length_km": 30.0, "type": "SS-LL90"}, "geometry": {"type": "LineString", "coordinates": [[107.48491, -6.8263], [107.48897, -6.8251], [107.49169, -6.82458], [107.49549, -6.82413], [107.49799, -6.82393], [107.50067, -6.82334], [107.50204, -6.82299], [107.50375, -6.82271], [107.50657, -6.8219], [107.50791, -6.82184], [107.50871, -6.82199], [107.50979, -6.82174], [107.51349, -6.82076], [107.5165, -6.82002], [107.51831, -6.81938], [107.52042, -6.81853], [107.52317, -6.81779], [107.52564, -6.81723], [107.52803, -6.81681], [107.53063, -6.81658], [107.53208, -6.81662], [107.53338, -6.81732], [107.53486, -6.8178], [107.5362, -6.81763], [107.53881, -6.8162], [107.54121, -6.81506], [107.54346, -6.81417], [107.54654, -6.81333], [107.54871, -6.81284], [107.55153, -6.81286], [107.55472, -6.81281], [107.5562, -6.81311], [107.55862, -6.81305], [107.56057, -6.81372], [107.56266, -6.81449], [107.56389, -6.81461], [107.56657, -6.81495], [107.56801, -6.81576], [107.56891, -6.81642], [107.5701, -6.81643], [107.57148, -6.81633], [107.57376, -6.81631], [107.57535, -6.81668], [107.5764, -6.81662], [107.57788, -6.81706], [107.57885, -6.81725], [107.57997, -6.81715], [107.58128, -6.81701], [107.58301, -6.81724], [107.58449, -6.81772], [107.58623, -6.81824], [107.58691, -6.81843], [107.58839, -6.81873], [107.59009, -6.81928], [107.59132, -6.81965], [107.59298, -6.81981], [107.59392, -6.82025], [107.59619, -6.82066], [107.59717, -6.8211], [107.59807, -6.82104], [107.59916, -6.8213], [107.60158, -6.82135], [107.60324, -6.82136], [107.60548, -6.82196], [107.60859, -6.82245], [107.61101, -6.82308], [107.61383, -6.82339], [107.61665, -6.82391], [107.61813, -6.82407], [107.61867, -6.82429], [107.61903, -6.82444], [107.61957, -6.82509], [107.62073, -6.82543], [107.6217, -6.82572], [107.62398, -6.82614], [107.62582, -6.82694], [107.62711, -6.82782], [107.62914, -6.82831], [107.63231, -6.82912], [107.63477, -6.82983], [107.63586, -6.82951], [107.63843, -6.82967], [107.6402, -6.82936], [107.64172, -6.82962], [107.6437, -6.83014], [107.64472, -6.82983], [107.64863, -6.83011], [107.65173, -6.83045], [107.65773, -6.83198], [107.66026, -6.83243], [107.66412, -6.8335], [107.6655, -6.8338], [107.66694, -6.83403], [107.66792, -6.83393], [107.66868, -6.83354], [107.67053, -6.83319], [107.67249, -6.83287], [107.67639, -6.8329], [107.68066, -6.83293], [107.68406, -6.83295], [107.68682, -6.83276], [107.69011, -6.83307], [107.69354, -6.83349], [107.69582, -6.83383], [107.69799, -6.83442], [107.7003, -6.83469], [107.70218, -6.83536], [107.70473, -6.83689], [107.70758, -6.83832], [107.71097, -6.83983], [107.71336, -6.84093], [107.71476, -6.8421], [107.71642, -6.84305], [107.71931, -6.84394], [107.72263, -6.84476], [107.72657, -6.8458], [107.72916, -6.84668], [107.73151, -6.84778], [107.73266, -6.84837], [107.73335, -6.84913], [107.73518, -6.85009], [107.73608, -6.85078], [107.73738, -6.85147], [107.7389, -6.85199], [107.73987, -6.85243], [107.74214, -6.85404], [107.74344, -6.85488]]}}, {"type": "Feature", "properties": {"name": "Opak Fault", "segment": "Opak", "region": "Java", "mmax": 6.9, "sliprate_m": "2", "length_km": 47.0, "type": "SS-LL50"}, "geometry": {"type": "LineString", "coordinates": [[110.27668, -8.02495], [110.29962, -8.00463], [110.31697, -7.9917], [110.33432, -7.97877], [110.34548, -7.96953], [110.35912, -7.95289], [110.38208, -7.91652], [110.39883, -7.88816], [110.41308, -7.88016], [110.43539, -7.85921], [110.45087, -7.84812], [110.48063, -7.80311], [110.50975, -7.76674], [110.5556, -7.71001]]}}, {"type": "Feature", "properties": {"name": "Java Back-arc Thrust", "segment": "Semarang Front", "region": "Java", "mmax": 6.9, "sliprate_m": "1.5", "length_km": 41.0, "type": "R45S"}, "geometry": {"type": "LineString", "coordinates": [[110.51217, -7.05271], [110.50481, -7.04822], [110.49922, -7.04522], [110.49416, -7.04198], [110.49307, -7.04113], [110.48161, -7.02693], [110.46035, -7.01322], [110.44256, -7.01037], [110.42687, -6.99737], [110.4134, -6.98699], [110.39577, -6.98593], [110.38021, -6.98695], [110.35221, -6.97758], [110.29933, -6.97025], [110.2703, -6.96399], [110.24333, -6.96706], [110.21739, -6.97531], [110.20804, -6.98462], [110.18829, -7.00945]]}}, {"type": "Feature", "properties": {"name": "Ungaran Fault", "segment": "Ungaran", "region": "Java", "mmax": 5.8, "sliprate_m": "0.5", "length_km": 19.0, "type": "N60S"}, "geometry": {"type": "LineString", "coordinates": [[110.39939, -7.10538], [110.39651, -7.10306], [110.39218, -7.09988], [110.3864, -7.09757], [110.38122, -7.08746], [110.36822, -7.08052], [110.35437, -7.07415], [110.33877, -7.07239], [110.32403, -7.07526], [110.31392, -7.07842], [110.29282, -7.08445], [110.28414, -7.08963], [110.26536, -7.09479], [110.24628, -7.09909]]}}, {"type": "Feature", "properties": {"name": "Rawapening Fault", "segment": "Rawapening", "region": "Java", "mmax": 5.9, "sliprate_m": "1.5", "length_km": 20.0, "type": "SS45"}, "geometry": {"type": "LineString", "coordinates": [[110.51167, -7.36494], [110.51531, -7.35801], [110.51104, -7.3326], [110.50479, -7.30983], [110.49655, -7.29465], [110.49127, -7.28474], [110.47477, -7.26988], [110.4533, -7.25864], [110.4434, -7.25335], [110.43316, -7.24971], [110.41731, -7.24771], [110.41037, -7.2477]]}}, {"type": "Feature", "properties": {"name": "Cimandiri", "segment": "Cimandiri", "region": "Java", "mmax": 6.6, "sliprate_m": "2", "length_km": 25.0, "type": "R45S"}, "geometry": {"type": "LineString", "coordinates": [[106.74527, -7.04597], [106.74365, -7.04514], [106.74202, -7.04499], [106.73959, -7.04497], [106.73593, -7.04466], [106.73201, -7.04436], [106.72984, -7.04474], [106.72468, -7.04564], [106.71737, -7.04639], [106.70883, -7.04699], [106.70356, -7.04599], [106.70059, -7.04502], [106.696, -7.04267], [106.69237, -7.04007], [106.68687, -7.03434], [106.68501, -7.03107], [106.68137, -7.02874], [106.67908, -7.02777], [106.67638, -7.02734], [106.67137, -7.02662], [106.66718, -7.02658], [106.65988, -7.02543], [106.65271, -7.02455], [106.64879, -7.0233], [106.6427, -7.02311], [106.6381, -7.02266], [106.62849, -7.02243], [106.62579, -7.02227], [106.61834, -7.02234], [106.61186, -7.02038], [106.60605, -7.01925], [106.60347, -7.02017], [106.6017, -7.02123], [106.60033, -7.0223], [106.59883, -7.02324], [106.59734, -7.02336], [106.59546, -7.02226], [106.59276, -7.02156], [106.58681, -7.02028], [106.58411, -7.01945], [106.57939, -7.01778], [106.57627, -7.01816], [106.57409, -7.01949], [106.57137, -7.02108], [106.5692, -7.0216], [106.56649, -7.02171], [106.5623, -7.02086], [106.55958, -7.02192], [106.55646, -7.02351], [106.55279, -7.02429], [106.54952, -7.02629], [106.54597, -7.03018], [106.5382, -7.03538]]}}, {"type": "Feature", "properties": {"name": "Cimandiri", "segment": "Nyalindung-Cibeber", "region": "Java", "mmax": 6.5, "sliprate_m": "0.5", "length_km": 32.0, "type": "R45S"}, "geometry": {"type": "LineString", "coordinates": [[107.03435, -6.99093], [107.02855, -6.9883], [107.02437, -6.9861], [107.02086, -6.98459], [107.01423, -6.98345], [107.00585, -6.98175], [106.99948, -6.9821], [106.99202, -6.98326], [106.98687, -6.98416], [106.97952, -6.98816], [106.97625, -6.99043], [106.96765, -6.99848], [106.96409, -7.00278], [106.95864, -7.00571], [106.95498, -7.00676], [106.95077, -7.00808], [106.94194, -7.01125], [106.93771, -7.01419], [106.93553, -7.01579], [106.93362, -7.0174], [106.9313, -7.01955], [106.9283, -7.02155], [106.92614, -7.02153], [106.9248, -7.01989], [106.92224, -7.01838], [106.92047, -7.01905], [106.916, -7.01941], [106.91072, -7.01896], [106.90855, -7.01935], [106.90488, -7.0204], [106.89811, -7.02061], [106.89363, -7.02165], [106.88996, -7.02311], [106.88656, -7.02416], [106.87937, -7.02559], [106.87435, -7.02717], [106.86647, -7.02953], [106.85779, -7.03148], [106.85385, -7.03213], [106.85006, -7.03209], [106.846, -7.03179], [106.84262, -7.03176], [106.83923, -7.03159], [106.83625, -7.03183], [106.83421, -7.03249], [106.83231, -7.03342], [106.83, -7.03448], [106.8266, -7.03567], [106.82036, -7.03643], [106.81616, -7.03747], [106.80991, -7.03958], [106.80338, -7.04209], [106.79728, -7.04326], [106.79171, -7.0447], [106.78493, -7.04612], [106.77868, -7.0481], [106.77136, -7.04911], [106.7662, -7.05082]]}}, {"type": "Feature", "properties": {"name": "Karangmanggu Fault", "segment": "Karangmanggu", "region": "Java", "mmax": 6.1, "sliprate_m": "0.5", "length_km": 20.0, "type": "SS90"}, "geometry": {"type": "LineString", "coordinates": [[108.62907, -6.94894], [108.623, -6.92817], [108.61779, -6.90461], [108.61616, -6.89479], [108.61369, -6.88385], [108.61288, -6.87824], [108.60927, -6.87037], [108.60594, -6.86391], [108.604, -6.85829], [108.60236, -6.851], [108.60072, -6.84258], [108.59737, -6.83808], [108.59403, -6.8333], [108.59074, -6.81983], [108.5877, -6.81029], [108.58606, -6.80215], [108.57947, -6.77438]]}}, {"type": "Feature", "properties": {"name": "Java Back-arc Thrust", "segment": "Brebes", "region": "Java", "mmax": 6.7, "sliprate_m": "2", "length_km": 23.0, "type": "R45S"}, "geometry": {"type": "LineString", "coordinates": [[108.9827, -7.03355], [108.97205, -7.0264], [108.96022, -7.01745], [108.94129, -7.0067], [108.92264, -6.99743], [108.91228, -6.99413], [108.89923, -6.99289], [108.88531, -6.98956], [108.87434, -6.98833], [108.85804, -6.98648], [108.84796, -6.98554], [108.8367, -6.98401], [108.82365, -6.98395], [108.81209, -6.98301], [108.80142, -6.98207], [108.78865, -6.98527]]}}, {"type": "Feature", "properties": {"name": "Pasuruan Fault", "segment": "Pasuruan", "region": "Java", "mmax": 6.4, "sliprate_m": "0.15", "length_km": 18.0, "type": "N60E"}, "geometry": {"type": "LineString", "coordinates": [[113.10804, -7.71645], [113.0921, -7.70942], [113.07393, -7.7015], [113.07047, -7.69958], [113.06777, -7.6978], [113.06589, -7.69595], [113.06236, -7.69403], [113.05983, -7.69296], [113.05767, -7.69218], [113.05457, -7.6899], [113.05096, -7.68791], [113.04772, -7.68599], [113.04564, -7.68557], [113.0437, -7.68493], [113.04146, -7.68365], [113.04002, -7.68229], [113.03836, -7.68115], [113.03525, -7.67923], [113.03353, -7.67852], [113.03122, -7.67781], [113.02913, -7.67768], [113.02655, -7.67819], [113.02468, -7.67856], [113.0223, -7.67829], [113.01992, -7.67736], [113.01733, -7.67644], [113.01596, -7.67588], [113.01438, -7.67517], [113.00932, -7.67318], [113.00441, -7.67069], [112.99959, -7.66885], [112.99562, -7.667], [112.99216, -7.66508], [112.98934, -7.6628], [112.98622, -7.66093], [112.96448, -7.64676]]}}, {"type": "Feature", "properties": {"name": "Probolinggo Fault", "segment": "Probolinggo", "region": "Java", "mmax": 6.1, "sliprate_m": "0.15", "length_km": 15.0, "type": "SS-LL90"}, "geometry": {"type": "LineString", "coordinates": [[113.33798, -7.87785], [113.3572, -7.87598], [113.3835, -7.87429], [113.39212, -7.87402], [113.40162, -7.8722], [113.40803, -7.87239], [113.41408, -7.87043], [113.41802, -7.87039], [113.4238, -7.86908], [113.42847, -7.86778], [113.43404, -7.86668], [113.44279, -7.86315], [113.45105, -7.86078], [113.454, -7.85973], [113.46142, -7.857], [113.46763, -7.85533], [113.4727, -7.85358]]}}, {"type": "Feature", "properties": {"name": "Java Back-arc Thrust", "segment": "Surabaya", "region": "Java", "mmax": 6.7, "sliprate_m": "0.5", "length_km": 25.0, "type": "R45S"}, "geometry": {"type": "LineString", "coordinates": [[112.73051, -7.28306], [112.72798, -7.27669], [112.72268, -7.27226], [112.71433, -7.26924], [112.70515, -7.26817], [112.69597, -7.26737], [112.68845, -7.26462], [112.68122, -7.2627], [112.67481, -7.26134], [112.6673, -7.26025], [112.65477, -7.25558], [112.64809, -7.25255], [112.64084, -7.24869], [112.63138, -7.24456], [112.62219, -7.24098], [112.61606, -7.23795], [112.61244, -7.23602], [112.60325, -7.23355], [112.5963, -7.2333], [112.59269, -7.23387], [112.58601, -7.23389], [112.58351, -7.2339], [112.57739, -7.23309], [112.57376, -7.22782], [112.56902, -7.22478], [112.55593, -7.21789], [112.54924, -7.21374], [112.53781, -7.20629], [112.52946, -7.20243]]}}, {"type": "Feature", "properties": {"name": "RMKS", "segment": "Pati", "region": "Java", "mmax": 6.9, "sliprate_m": "1", "length_km": 112.0, "type": "R45S"}, "geometry": {"type": "LineString", "coordinates": [[111.74462, -6.77144], [111.68276, -6.77858], [111.6316, -6.78334], [111.58758, -6.78572], [111.5507, -6.78334], [111.51739, -6.78334], [111.48169, -6.78096], [111.43648, -6.78572], [111.38108, -6.7951], [111.37156, -6.79652], [111.36062, -6.797], [111.3492, -6.797], [111.33635, -6.79843], [111.32207, -6.79938], [111.30875, -6.79938], [111.29495, -6.80271], [111.28352, -6.80557], [111.26786, -6.8111], [111.25098, -6.81381], [111.24056, -6.81736], [111.23014, -6.82237], [111.22243, -6.82883], [111.21785, -6.83602], [111.20889, -6.84321], [111.20368, -6.84759], [111.1966, -6.85072], [111.18221, -6.84947], [111.16679, -6.8526], [111.14885, -6.86077], [111.13302, -6.86449], [111.11551, -6.86741], [111.10301, -6.87012], [111.09008, -6.87429], [111.07653, -6.8795], [111.06604, -6.88456], [111.05319, -6.89789], [111.03987, -6.90979], [111.02892, -6.91978], [111.02416, -6.92597], [111.01702, -6.92882], [111.00608, -6.92882], [110.98704, -6.92549], [110.96658, -6.92501], [110.94421, -6.92739], [110.92518, -6.92787], [110.91566, -6.9331], [110.90567, -6.93739], [110.89424, -6.93881], [110.87521, -6.94357], [110.86521, -6.94928], [110.84856, -6.955], [110.83761, -6.95785], [110.82191, -6.96213], [110.80906, -6.96594], [110.79336, -6.96975], [110.78431, -6.97831]]}}, {"type": "Feature", "properties": {"name": "Wonsorejo Fault", "segment": "Wonsorejo", "region": "Java", "mmax": 5.9, "sliprate_m": "0.225", "length_km": 11.0, "type": "SS-LL90"}, "geometry": {"type": "LineString", "coordinates": [[114.34184, -7.93997], [114.3421, -7.94525], [114.34216, -7.9523], [114.34315, -7.96595], [114.34409, -7.97255], [114.34593, -7.98113], [114.34733, -7.99014], [114.34805, -7.99697], [114.34904, -8.01083], [114.35049, -8.02514], [114.35122, -8.03394]]}}, {"type": "Feature", "properties": {"name": "Merapi-Merbabu Fault", "segment": "Merapi-Merbabu", "region": "Java", "mmax": 6.5, "sliprate_m": "0.75", "length_km": 28.0, "type": "SS90"}, "geometry": {"type": "LineString", "coordinates": [[110.46417, -7.57413], [110.46317, -7.56122], [110.46284, -7.5483], [110.46115, -7.54252], [110.45945, -7.53539], [110.45606, -7.52247], [110.4537, -7.50989], [110.45235, -7.49732], [110.4493, -7.48644], [110.44489, -7.47216], [110.44184, -7.45822], [110.43981, -7.44905], [110.43506, -7.43443], [110.43133, -7.42525], [110.42828, -7.41471], [110.42118, -7.37589], [110.42223, -7.35619], [110.42735, -7.34532], [110.42974, -7.33751], [110.4369, -7.32766]]}}, {"type": "Feature", "properties": {"name": "Java Back-arc Thrust", "segment": "Sendangdelik", "region": "Java", "mmax": 7.1, "sliprate_m": "2", "length_km": 52.0, "type": "R45S"}, "geometry": {"type": "LineString", "coordinates": [[110.83305, -7.13494], [110.81788, -7.13294], [110.80923, -7.13813], [110.7971, -7.13322], [110.79187, -7.12893], [110.78872, -7.12246], [110.78152, -7.11371], [110.77173, -7.10805], [110.76504, -7.10342], [110.75886, -7.10187], [110.75011, -7.10444], [110.73157, -7.10803], [110.7156, -7.10802], [110.70067, -7.10801], [110.68471, -7.10286], [110.67235, -7.10028], [110.65897, -7.09872], [110.64043, -7.09562], [110.6291, -7.09561], [110.61623, -7.09406], [110.60593, -7.09611], [110.59615, -7.0961], [110.57864, -7.09248], [110.56629, -7.08887], [110.55084, -7.08629], [110.53694, -7.08833], [110.52767, -7.0842], [110.51692, -7.08237], [110.50889, -7.08193], [110.50516, -7.08011], [110.50004, -7.0777], [110.4954, -7.07306], [110.49138, -7.06943], [110.48525, -7.06416], [110.4792, -7.06139], [110.47369, -7.05857], [110.46765, -7.0541], [110.46452, -7.0512], [110.45989, -7.0473], [110.45612, -7.04569], [110.45104, -7.04316], [110.44687, -7.04227], [110.44171, -7.04035], [110.4361, -7.03768], [110.43154, -7.03541], [110.4251, -7.03284], [110.42188, -7.03182], [110.41965, -7.0314], [110.41519, -7.03046], [110.4118, -7.02911], [110.40666, -7.02551], [110.40361, -7.02312], [110.40053, -7.02093], [110.39891, -7.02048]]}}, {"type": "Feature", "properties": {"name": "Java Back-arc Thrust", "segment": "Pekalongan", "region": "Java", "mmax": 6.3, "sliprate_m": "2", "length_km": 12.0, "type": "R45S"}, "geometry": {"type": "LineString", "coordinates": [[109.62285, -6.97976], [109.61578, -6.98097], [109.61178, -6.98034], [109.60318, -6.98093], [109.60287, -6.98154], [109.59949, -6.98184], [109.59641, -6.98336], [109.59087, -6.98611], [109.58442, -6.98609], [109.57796, -6.98699], [109.57212, -6.98913], [109.56412, -6.99248], [109.55859, -6.99277], [109.55429, -6.99276], [109.55244, -6.99428], [109.54874, -6.99826], [109.54474, -7.00009], [109.54135, -7.00131], [109.53705, -7.00314], [109.52659, -7.00587], [109.51797, -7.00984]]}}, {"type": "Feature", "properties": {"name": "Java Back-arc Thrust", "segment": "Tegal", "region": "Java", "mmax": 6.5, "sliprate_m": "2", "length_km": 18.0, "type": "R45S"}, "geometry": {"type": "LineString", "coordinates": [[109.31284, -6.9752], [109.3106, -6.97094], [109.30686, -6.96641], [109.30412, -6.9624], [109.29912, -6.95812], [109.29337, -6.9556], [109.28711, -6.95282], [109.2796, -6.95079], [109.2731, -6.94877], [109.26909, -6.94925], [109.26483, -6.94924], [109.26156, -6.95073], [109.25931, -6.95122], [109.2543, -6.9507], [109.25054, -6.95069], [109.24477, -6.95142], [109.24126, -6.95215], [109.2375, -6.95289], [109.23349, -6.95363], [109.22947, -6.95587], [109.22621, -6.95635], [109.22069, -6.95734], [109.21593, -6.95857], [109.21166, -6.96006], [109.20715, -6.96229], [109.20212, -6.96578], [109.19809, -6.97077], [109.19432, -6.97501], [109.18828, -6.98175], [109.18526, -6.98549], [109.18148, -6.98923], [109.17996, -6.99348], [109.17995, -6.99674], [109.17819, -6.99924]]}}, {"type": "Feature", "properties": {"name": "Java Back-arc Thrust", "segment": "Pemalang", "region": "Java", "mmax": 6.5, "sliprate_m": "2", "length_km": 20.0, "type": "R45S"}, "geometry": {"type": "LineString", "coordinates": [[109.47724, -7.01345], [109.47463, -7.00798], [109.46868, -6.99965], [109.46011, -6.98846], [109.44845, -6.97895], [109.42942, -6.96895], [109.42394, -6.96205], [109.42038, -6.95706], [109.40943, -6.94897], [109.40079, -6.94298], [109.39454, -6.94162], [109.38917, -6.94193], [109.38548, -6.94527], [109.38356, -6.94984], [109.38053, -6.95385], [109.3766, -6.95808], [109.3738, -6.96031], [109.37056, -6.9613], [109.36865, -6.96263], [109.36686, -6.96397], [109.36395, -6.96597], [109.36159, -6.96819], [109.3589, -6.97086], [109.35744, -6.97287], [109.35609, -6.97432], [109.35464, -6.97599], [109.35329, -6.97687], [109.35217, -6.97888], [109.35104, -6.98055], [109.3488, -6.98177], [109.34846, -6.98289], [109.34835, -6.98378]]}}, {"type": "Feature", "properties": {"name": "Ajibarang Fault", "segment": "Ajibarang", "region": "Java", "mmax": 6.5, "sliprate_m": "0.5", "length_km": 19.0, "type": "SS90"}, "geometry": {"type": "LineString", "coordinates": [[109.02445, -7.41718], [109.03025, -7.41432], [109.03394, -7.41197], [109.03868, -7.41094], [109.04341, -7.41044], [109.04841, -7.40757], [109.05552, -7.40524], [109.05841, -7.40526], [109.06209, -7.4058], [109.07498, -7.40297], [109.08551, -7.40039], [109.10182, -7.39652], [109.11129, -7.39473], [109.11892, -7.39371], [109.12182, -7.39136], [109.12577, -7.38902], [109.13235, -7.38799], [109.14233, -7.38882], [109.15231, -7.3907], [109.16071, -7.39231], [109.16938, -7.39444], [109.17778, -7.39684], [109.18933, -7.40082], [109.193, -7.40241]]}}, {"type": "Feature", "properties": {"name": "Java Back-arc Thrust", "segment": "Weleri", "region": "Java", "mmax": 6.4, "sliprate_m": "2", "length_km": 16.0, "type": "R45S"}, "geometry": {"type": "LineString", "coordinates": [[110.03697, -6.96106], [110.03459, -6.95749], [110.03221, -6.95452], [110.02389, -6.95095], [110.01913, -6.94857], [110.01496, -6.94441], [110.01377, -6.93786], [110.00842, -6.93429], [110.00188, -6.92894], [109.99533, -6.92478], [109.98581, -6.9218], [109.97154, -6.92121], [109.95964, -6.92002], [109.94715, -6.91645], [109.93168, -6.91288], [109.91859, -6.91228], [109.90908, -6.91645]]}}, {"type": "Feature", "properties": {"name": "Garsela Fault", "segment": "Kencana", "region": "Java", "mmax": 5.8, "sliprate_m": "0.1", "length_km": 18.0, "type": "SS-LL90"}, "geometry": {"type": "LineString", "coordinates": [[107.64956, -7.28125], [107.64331, -7.28482], [107.63826, -7.29166], [107.63023, -7.29999], [107.6219, -7.30921], [107.61892, -7.31218], [107.61268, -7.31456], [107.60465, -7.31694], [107.59781, -7.3223], [107.59632, -7.32527], [107.58799, -7.333], [107.58085, -7.33747], [107.5755, -7.34014], [107.56836, -7.34341], [107.56271, -7.34579], [107.55914, -7.34847], [107.55498, -7.35293], [107.552, -7.35829], [107.54784, -7.36304], [107.54486, -7.36572], [107.53535, -7.37018], [107.52731, -7.37702], [107.52226, -7.3803]]}}, {"type": "Feature", "properties": {"name": "Garsela Fault", "segment": "Kendang", "region": "Java", "mmax": 6.3, "sliprate_m": "0.1", "length_km": 21.0, "type": "SS-LL90"}, "geometry": {"type": "LineString", "coordinates": [[107.79531, -7.12074], [107.7927, -7.12336], [107.79056, -7.1255], [107.78865, -7.12788], [107.78651, -7.13002], [107.7827, -7.13383], [107.7808, -7.13597], [107.7789, -7.14049], [107.77652, -7.14335], [107.77438, -7.14525], [107.77271, -7.14692], [107.77009, -7.14858], [107.76819, -7.15096], [107.76391, -7.15239], [107.76105, -7.15429], [107.75796, -7.15525], [107.75605, -7.1581], [107.75367, -7.16167], [107.75034, -7.16619], [107.7482, -7.1681], [107.74463, -7.17048], [107.7413, -7.17262], [107.7394, -7.175], [107.73868, -7.1788], [107.73654, -7.18451], [107.73488, -7.18808], [107.72988, -7.19022], [107.72655, -7.19308], [107.72441, -7.1976], [107.72226, -7.20188], [107.71989, -7.20641], [107.71751, -7.21045], [107.71441, -7.21331], [107.71037, -7.21783], [107.70894, -7.22235], [107.70965, -7.22639], [107.71037, -7.22996], [107.70965, -7.23472], [107.70894, -7.23877], [107.70965, -7.24186], [107.71108, -7.24662], [107.71275, -7.24995], [107.71322, -7.2528], [107.7137, -7.2559], [107.71441, -7.2628], [107.71346, -7.26589], [107.71322, -7.26898], [107.71251, -7.27374], [107.71251, -7.27541]]}}, {"type": "Feature", "properties": {"name": "Java Back-arc Thrust", "segment": "Batang", "region": "Java", "mmax": 6.6, "sliprate_m": "2", "length_km": 43.0, "type": "R45S"}, "geometry": {"type": "MultiLineString", "coordinates": [[[110.07099, -6.98051], [110.06614, -6.97996], [110.06258, -6.97959], [110.05707, -6.97713], [110.05522, -6.97641], [110.05043, -6.97616], [110.04429, -6.97641], [110.03951, -6.97573], [110.03642, -6.97434], [110.02999, -6.97392], [110.02023, -6.97233], [110.01081, -6.96958], [109.99743, -6.96546], [109.9917, -6.96237], [109.98513, -6.95904], [109.9779, -6.95591], [109.97169, -6.95353], [109.96639, -6.9517], [109.95582, -6.94751], [109.94544, -6.94276], [109.94152, -6.94087], [109.93603, -6.9392], [109.9324, -6.93809], [109.92822, -6.93738], [109.92449, -6.9352], [109.92092, -6.93456], [109.91886, -6.93179], [109.91275, -6.9298], [109.90918, -6.92758], [109.9049, -6.92584], [109.90164, -6.92489]], [[109.89729, -6.92527], [109.89208, -6.92578], [109.88561, -6.92489], [109.87813, -6.92337], [109.87508, -6.92159], [109.87115, -6.9207], [109.86797, -6.92019], [109.86379, -6.92007], [109.85922, -6.91968], [109.85516, -6.91943], [109.84716, -6.91842], [109.84272, -6.91664], [109.83422, -6.91562], [109.82762, -6.91524], [109.82013, -6.91309], [109.8148, -6.91194], [109.80934, -6.91118], [109.80197, -6.90909], [109.79467, -6.90734], [109.78801, -6.90577], [109.7754, -6.90815], [109.75041, -6.9141], [109.73423, -6.91934], [109.71591, -6.92505], [109.71091, -6.93147], [109.70068, -6.93718]]]}}, {"type": "Feature", "properties": {"name": "Java Back-arc Thrust", "segment": "Tangkuban Prahu", "region": "Java", "mmax": 6.6, "sliprate_m": "1", "length_km": 48.0, "type": "R45S"}, "geometry": {"type": "LineString", "coordinates": [[107.84395, -6.59592], [107.82848, -6.59155], [107.80429, -6.586], [107.78843, -6.58283], [107.769, -6.58124], [107.75393, -6.57371], [107.74203, -6.56657], [107.73172, -6.563], [107.71546, -6.55507], [107.70118, -6.55507], [107.68849, -6.55467], [107.67501, -6.55467], [107.65677, -6.55348], [107.63733, -6.54753], [107.62345, -6.53643], [107.60997, -6.5285], [107.59371, -6.52493], [107.57507, -6.52453], [107.54731, -6.52255], [107.53462, -6.52334], [107.51479, -6.5285], [107.50408, -6.53048], [107.48148, -6.54278], [107.45729, -6.56538], [107.43786, -6.56816]]}}, {"type": "Feature", "properties": {"name": "Java Back-arc Thrust", "segment": "Citarum Front", "region": "Java", "mmax": 6.9, "sliprate_m": "0.1", "length_km": 76.0, "type": "R43SW"}, "geometry": {"type": "LineString", "coordinates": [[107.48378, -6.45156], [107.46141, -6.42872], [107.44904, -6.4192], [107.43238, -6.40921], [107.41811, -6.39921], [107.40335, -6.39255], [107.38194, -6.38541], [107.36957, -6.38303], [107.32987, -6.36982], [107.30488, -6.35605], [107.29614, -6.34761], [107.28302, -6.3455], [107.27187, -6.34248], [107.25576, -6.34162], [107.24405, -6.35032], [107.21804, -6.34825], [107.20289, -6.34629], [107.18819, -6.34052], [107.16643, -6.33138], [107.14892, -6.3222], [107.13282, -6.31275], [107.12069, -6.30811], [107.1152, -6.30783], [107.1075, -6.30916], [107.08534, -6.2995], [107.05895, -6.28979], [107.04284, -6.28399], [107.01141, -6.27489], [106.99432, -6.26977], [106.95394, -6.26104], [106.91143, -6.25184], [106.8943, -6.24962], [106.8759, -6.24835], [106.86003, -6.24803], [106.84798, -6.24867]]}}, {"type": "Feature", "properties": {"name": "Java Back-arc Thrust", "segment": "Citarum", "region": "Java", "mmax": 6.7, "sliprate_m": "0.1", "length_km": 41.0, "type": "R50S"}, "geometry": {"type": "MultiLineString", "coordinates": [[[107.42706, -6.51903], [107.41849, -6.51601], [107.40802, -6.51275], [107.39775, -6.50993], [107.38722, -6.50651], [107.38085, -6.50342], [107.37249, -6.49999], [107.37096, -6.49911], [107.3685, -6.49712], [107.36538, -6.49452], [107.36197, -6.49141], [107.35714, -6.4876], [107.35278, -6.48506], [107.34866, -6.48327], [107.34598, -6.4824], [107.34133, -6.48136], [107.33637, -6.48054], [107.33333, -6.4802], [107.32824, -6.4799], [107.32296, -6.47968], [107.31804, -6.48011], [107.31268, -6.48057]], [[107.33974, -6.46146], [107.33409, -6.45776], [107.32558, -6.45544], [107.31866, -6.4529], [107.3104, -6.45064], [107.3003, -6.44842], [107.29275, -6.44512], [107.28763, -6.44216], [107.27832, -6.43665], [107.27116, -6.43298], [107.26585, -6.43359], [107.25319, -6.43535], [107.24466, -6.4373], [107.23381, -6.4394], [107.22779, -6.44175], [107.22234, -6.44102]], [[107.20466, -6.44604], [107.18825, -6.44704], [107.17041, -6.44505], [107.15504, -6.44486], [107.13708, -6.44595], [107.11795, -6.4402], [107.10386, -6.43421], [107.09083, -6.42242]]]}}, {"type": "Feature", "properties": {"name": "Java Back-arc Thrust", "segment": "Depok Blind Thrust", "region": "Java", "mmax": 6.9, "sliprate_m": "0.1", "length_km": 43.0, "type": "R57SW"}, "geometry": {"type": "LineString", "coordinates": [[107.02606, -6.35997], [107.01739, -6.35502], [107.00811, -6.35097], [106.99383, -6.34645], [106.98241, -6.34241], [106.97432, -6.3405], [106.96147, -6.33693], [106.95029, -6.33551], [106.9372, -6.33432], [106.92887, -6.33479], [106.92195, -6.33553], [106.90286, -6.33486], [106.88718, -6.33837], [106.87026, -6.34324], [106.86225, -6.34601], [106.84315, -6.35302], [106.83157, -6.3503], [106.81625, -6.34704], [106.80528, -6.34567], [106.79041, -6.34715], [106.75745, -6.36248], [106.73698, -6.37065], [106.71665, -6.37741], [106.69716, -6.38354], [106.67765, -6.38998], [106.6558, -6.40103]]}}, {"type": "Feature", "properties": {"name": "Java Back-arc Thrust", "segment": "Rarata", "region": "Java", "mmax": 6.7, "sliprate_m": "0.1", "length_km": 15.0, "type": "R57SW"}, "geometry": {"type": "LineString", "coordinates": [[106.75805, -6.50183], [106.74369, -6.48771], [106.71814, -6.47663], [106.6934, -6.47034], [106.67824, -6.468], [106.66031, -6.46805], [106.63183, -6.47062]]}}, {"type": "Feature", "properties": {"name": "Java Back-arc Thrust", "segment": "Salak", "region": "Java", "mmax": 6.5, "sliprate_m": "0.1", "length_km": 20.0, "type": "R57SW"}, "geometry": {"type": "MultiLineString", "coordinates": [[[106.863, -6.57414], [106.84876, -6.56633], [106.83618, -6.56128], [106.81846, -6.55719], [106.80654, -6.55147], [106.78762, -6.54815], [106.77051, -6.54743], [106.75957, -6.54777]], [[106.75854, -6.54762], [106.74807, -6.54305], [106.73589, -6.53874], [106.7233, -6.53893], [106.70902, -6.5395], [106.69995, -6.53766], [106.6897, -6.53805]]]}}, {"type": "Feature", "properties": {"name": "Java Back-arc Thrust", "segment": "Klapanunggal", "region": "Java", "mmax": 6.7, "sliprate_m": "0.1", "length_km": 13.0, "type": "R57SW"}, "geometry": {"type": "LineString", "coordinates": [[107.03908, -6.52306], [107.02271, -6.51507], [107.01325, -6.50763], [107.00204, -6.5019], [106.99421, -6.49739], [106.98184, -6.48146], [106.96959, -6.47543], [106.95631, -6.46572], [106.93973, -6.45592]]}}, {"type": "Feature", "properties": {"name": "Java Back-arc Thrust", "segment": "Mranggen", "region": "Java", "mmax": 6.3, "sliprate_m": "1.5", "length_km": 12.0, "type": "R45S"}, "geometry": {"type": "LineString", "coordinates": [[110.6152, -7.00198], [110.60352, -7.00122], [110.57872, -7.00133], [110.55636, -7.00133], [110.53855, -7.00251], [110.52043, -7.00294], [110.50965, -7.00443]]}}, {"type": "Feature", "properties": {"name": "Java Back-arc Thrust", "segment": "Cariu", "region": "Java", "mmax": 6.5, "sliprate_m": "0.1", "length_km": 18.0, "type": "R57SW"}, "geometry": {"type": "LineString", "coordinates": [[107.21763, -6.5151], [107.20852, -6.51207], [107.1958, -6.5096], [107.18221, -6.50859], [107.16796, -6.50515], [107.14437, -6.50381], [107.13832, -6.50219], [107.12175, -6.50302], [107.10097, -6.4993], [107.07798, -6.48918], [107.06435, -6.48274]]}}, {"type": "Feature", "properties": {"name": "Java Back-arc Thrust", "segment": "Cirata", "region": "Java", "mmax": 6.8, "sliprate_m": "0.1", "length_km": 63.0, "type": "R57SW"}, "geometry": {"type": "LineString", "coordinates": [[107.37729, -6.7053], [107.36946, -6.69716], [107.35618, -6.68612], [107.33581, -6.67984], [107.31987, -6.67603], [107.30542, -6.66861], [107.29337, -6.65032], [107.28004, -6.64532], [107.26481, -6.64247], [107.25315, -6.63937], [107.23897, -6.63994], [107.2231, -6.64185], [107.2102, -6.63784], [107.18387, -6.64054], [107.16563, -6.63526], [107.14564, -6.64281], [107.12386, -6.64123], [107.10701, -6.64222], [107.09134, -6.64371], [107.08202, -6.63954], [107.06726, -6.63361], [107.04036, -6.63614], [106.99975, -6.63423], [106.97945, -6.6336], [106.95343, -6.6336], [106.92234, -6.62852], [106.8995, -6.61964], [106.86396, -6.61456], [106.85064, -6.61583], [106.83985, -6.61647]]}}, {"type": "Feature", "properties": {"name": "Java Back-arc Thrust", "segment": "Cipunegara", "region": "Java", "mmax": 6.4, "sliprate_m": "1", "length_km": 16.0, "type": "R45SW"}, "geometry": {"type": "LineString", "coordinates": [[107.9364, -6.6277], [107.93241, -6.61978], [107.92772, -6.61045], [107.91955, -6.60335], [107.91252, -6.59725], [107.90593, -6.59263], [107.89726, -6.58891], [107.89111, -6.58627], [107.88493, -6.58582], [107.87551, -6.58513], [107.86604, -6.58443], [107.85873, -6.58244], [107.84905, -6.5798], [107.84003, -6.57734], [107.82843, -6.57522], [107.81939, -6.57399], [107.81373, -6.57321]]}}, {"type": "Feature", "properties": {"name": "Java Back-arc Thrust", "segment": "Tampomas", "region": "Java", "mmax": 6.7, "sliprate_m": "2", "length_km": 24.0, "type": "R31SW"}, "geometry": {"type": "LineString", "coordinates": [[108.13576, -6.75149], [108.12303, -6.74124], [108.11119, -6.73022], [108.10095, -6.7199], [108.08837, -6.71008], [108.07985, -6.70201], [108.07482, -6.69467], [108.06642, -6.68189], [108.05868, -6.67708], [108.04267, -6.66924], [108.03106, -6.66274], [108.0223, -6.65604], [108.01115, -6.649], [107.99292, -6.64358], [107.98075, -6.64118], [107.97022, -6.63935], [107.95881, -6.63816]]}}, {"type": "Feature", "properties": {"name": "Java Back-arc Thrust", "segment": "Baribis", "region": "Java", "mmax": 6.4, "sliprate_m": "2", "length_km": 17.0, "type": "R45SW"}, "geometry": {"type": "LineString", "coordinates": [[108.26369, -6.82352], [108.25249, -6.812], [108.24594, -6.80372], [108.24328, -6.7909], [108.23918, -6.78186], [108.23602, -6.77488], [108.22677, -6.76896], [108.22106, -6.76631], [108.20715, -6.76528], [108.19446, -6.76505], [108.18533, -6.76569], [108.17056, -6.76311], [108.15779, -6.75654], [108.15102, -6.74983]]}}, {"type": "Feature", "properties": {"name": "Java Back-arc Thrust", "segment": "Kendal", "region": "Java", "mmax": 6.5, "sliprate_m": "2", "length_km": 19.0, "type": "R45S"}, "geometry": {"type": "LineString", "coordinates": [[110.2209, -7.018], [110.21633, -7.01667], [110.20834, -7.01667], [110.20091, -7.01591], [110.19615, -7.01495], [110.19254, -7.014], [110.18987, -7.01248], [110.18659, -7.00959], [110.18458, -7.00648], [110.17995, -7.00336], [110.17744, -7.00215], [110.17332, -7.00215], [110.16799, -7.00336], [110.16136, -7.00426], [110.15442, -7.00507], [110.1507, -7.00517], [110.14668, -7.00517], [110.13925, -7.00748], [110.1307, -7.00889], [110.12124, -7.0168], [110.10845, -7.01948], [110.1037, -7.01591], [110.09537, -7.01145], [110.0912, -7.00847], [110.08674, -7.00609], [110.0799, -7.00401], [110.07514, -7.00342], [110.07068, -7.00342], [110.06622, -7.00312]]}}, {"type": "Feature", "properties": {"name": "RMKS", "segment": "Ketapang", "region": "Java", "mmax": 6.8, "sliprate_m": "0.5", "length_km": 111.0, "type": "RR45S"}, "geometry": {"type": "LineString", "coordinates": [[113.86711, -6.87654], [113.79573, -6.9043], [113.61727, -6.90271], [113.52487, -6.90906], [113.40352, -6.9047], [113.31865, -6.89954], [113.2192, -6.91981], [113.1536, -6.92595], [113.06797, -6.92087], [113.02617, -6.92614], [112.94337, -6.90409], [112.88369, -6.90791]]}}, {"type": "Feature", "properties": {"name": "RMKS", "segment": "Baliga", "region": "Java", "mmax": 6.7, "sliprate_m": "0.5", "length_km": 49.0, "type": "R45N"}, "geometry": {"type": "LineString", "coordinates": [[112.89098, -7.03641], [112.94872, -7.05723], [113.03096, -7.09414], [113.11814, -7.10277], [113.18223, -7.11064], [113.25711, -7.12149], [113.3117, -7.14983]]}}, {"type": "Feature", "properties": {"name": "RMKS", "segment": "Tuban2", "region": "Java", "mmax": 6.3, "sliprate_m": "0.5", "length_km": 26.0, "type": "R45S"}, "geometry": {"type": "LineString", "coordinates": [[112.54073, -6.91495], [112.42178, -6.86425], [112.32624, -6.86571], [112.24873, -6.87497]]}}, {"type": "Feature", "properties": {"name": "RMKS", "segment": "Pati2", "region": "Java", "mmax": 6.3, "sliprate_m": "1", "length_km": 47.0, "type": "R45N"}, "geometry": {"type": "LineString", "coordinates": [[110.8158, -7.01187], [110.84768, -7.0083], [110.89908, -6.99284], [110.93929, -6.98713], [110.99164, -6.97404], [111.03351, -6.97621], [111.07804, -6.9936], [111.12908, -6.99168], [111.14501, -6.99026], [111.18659, -6.97978], [111.21673, -6.94805]]}}, {"type": "Feature", "properties": {"name": "RMKS", "segment": "Bojonegoro", "region": "Java", "mmax": 6.6, "sliprate_m": "1", "length_km": 41.0, "type": "R45N"}, "geometry": {"type": "LineString", "coordinates": [[111.79958, -7.01812], [111.82722, -7.03887], [111.8543, -7.05571], [111.87858, -7.07094], [111.89713, -7.07427], [111.93739, -7.07424], [111.98305, -7.06645], [112.01571, -7.05408], [112.04536, -7.03742], [112.06868, -7.03242], [112.1, -7.01666], [112.1387, -7.00841]]}}, {"type": "Feature", "properties": {"name": "RMKS", "segment": "Tuban3", "region": "Java", "mmax": 6.2, "sliprate_m": "0.5", "length_km": 22.0, "type": "R45N"}, "geometry": {"type": "LineString", "coordinates": [[112.31282, -6.98842], [112.34548, -6.99194], [112.39273, -6.99378], [112.44573, -7.00145], [112.50793, -7.01317]]}}, {"type": "Feature", "properties": {"name": "RMKS", "segment": "Mandangin", "region": "Java", "mmax": 6.6, "sliprate_m": "0.5", "length_km": 48.0, "type": "R45N"}, "geometry": {"type": "LineString", "coordinates": [[113.18313, -7.31758], [113.22279, -7.33464], [113.27878, -7.34525], [113.34479, -7.3658], [113.60855, -7.3896]]}}, {"type": "Feature", "properties": {"name": "RMKS", "segment": "Somorkoning", "region": "Java", "mmax": 6.5, "sliprate_m": "0.5", "length_km": 26.0, "type": "SS-LL90"}, "geometry": {"type": "LineString", "coordinates": [[112.94325, -7.07019], [112.93075, -7.08061], [112.91648, -7.09102], [112.89774, -7.10321], [112.88644, -7.11184], [112.879, -7.1154], [112.86502, -7.11987], [112.84807, -7.13057], [112.83974, -7.13385], [112.81832, -7.14247], [112.8091, -7.14753], [112.80107, -7.15169], [112.7862, -7.15823], [112.76538, -7.16597], [112.7395, -7.17489]]}}, {"type": "Feature", "properties": {"name": "Java Back-arc Thrust", "segment": "Drenges", "region": "Java", "mmax": 6.4, "sliprate_m": "1", "length_km": 31.0, "type": "R45S"}, "geometry": {"type": "LineString", "coordinates": [[112.18681, -7.37438], [112.18108, -7.37288], [112.17204, -7.37258], [112.16194, -7.37122], [112.15229, -7.37137], [112.1458, -7.37137], [112.13736, -7.37137], [112.12786, -7.37182], [112.11565, -7.37182], [112.10103, -7.37062], [112.08731, -7.367], [112.07947, -7.36549], [112.07253, -7.36383], [112.06326, -7.36293], [112.05753, -7.36217], [112.04592, -7.36232], [112.0313, -7.35976], [111.99357, -7.35678], [111.9793, -7.35261], [111.96145, -7.34964], [111.94331, -7.34964], [111.9326, -7.34934], [111.92189, -7.34964], [111.91178, -7.35053], [111.90702, -7.34964]]}}, {"type": "Feature", "properties": {"name": "Java Back-arc Thrust", "segment": "Pandan", "region": "Java", "mmax": 6.5, "sliprate_m": "1", "length_km": 18.0, "type": "R45S"}, "geometry": {"type": "LineString", "coordinates": [[111.90509, -7.34042], [111.89141, -7.3422], [111.87981, -7.34161], [111.85928, -7.34161], [111.84174, -7.34042], [111.83668, -7.33834], [111.82805, -7.33507], [111.81883, -7.33239], [111.80932, -7.33239], [111.80009, -7.33507], [111.79385, -7.33596], [111.7882, -7.33477], [111.77898, -7.33328], [111.77154, -7.32912], [111.75494, -7.32257], [111.74662, -7.32019]]}}, {"type": "Feature", "properties": {"name": "Java Back-arc Thrust", "segment": "Cepu", "region": "Java", "mmax": 6.6, "sliprate_m": "1", "length_km": 40.0, "type": "R45S"}, "geometry": {"type": "LineString", "coordinates": [[111.73799, -7.32329], [111.7136, -7.31258], [111.6904, -7.30604], [111.66542, -7.29533], [111.64519, -7.29116], [111.60831, -7.28165], [111.58035, -7.27748], [111.5631, -7.27213], [111.55001, -7.26618], [111.53195, -7.2623], [111.49975, -7.25818], [111.48282, -7.25363], [111.46992, -7.24882], [111.46616, -7.24634], [111.45531, -7.24653], [111.44581, -7.24707], [111.42794, -7.24438], [111.41536, -7.24168], [111.40155, -7.23827], [111.39517, -7.23601], [111.39377, -7.23551]]}}, {"type": "Feature", "properties": {"name": "Java Back-arc Thrust", "segment": "Gabus", "region": "Java", "mmax": 6.5, "sliprate_m": "1", "length_km": 40.0, "type": "R45S"}, "geometry": {"type": "LineString", "coordinates": [[111.47211, -7.22899], [111.45605, -7.22399], [111.44177, -7.219], [111.425, -7.21471], [111.40822, -7.21436], [111.38502, -7.21186], [111.36682, -7.21007], [111.3554, -7.20757], [111.34183, -7.20508], [111.32506, -7.20329], [111.30971, -7.20329], [111.2858, -7.20186], [111.26831, -7.19758], [111.2551, -7.1958], [111.23262, -7.19294], [111.20745, -7.18402], [111.19496, -7.17474], [111.18461, -7.16974], [111.1739, -7.16617], [111.15641, -7.16581], [111.13893, -7.16581], [111.12358, -7.16367]]}}, {"type": "Feature", "properties": {"name": "Java Back-arc Thrust", "segment": "Purwodadi", "region": "Java", "mmax": 6.8, "sliprate_m": "1", "length_km": 28.0, "type": "R45S"}, "geometry": {"type": "LineString", "coordinates": [[111.08082, -7.16403], [111.05227, -7.16106], [111.03085, -7.15868], [111.01122, -7.15868], [110.99159, -7.16106], [110.97731, -7.15927], [110.95828, -7.1557], [110.93028, -7.14609], [110.92508, -7.1446], [110.90842, -7.14564], [110.89704, -7.1532], [110.88705, -7.16367], [110.8742, -7.16605], [110.85802, -7.16653], [110.84102, -7.16218]]}}, {"type": "Feature", "properties": {"name": "Java Back-arc Thrust", "segment": "Situbondo", "region": "Java", "mmax": 7.0, "sliprate_m": "0.5", "length_km": 101.0, "type": "R45S"}, "geometry": {"type": "LineString", "coordinates": [[115.21677, -7.81309], [115.00262, -7.67746], [114.75278, -7.59894], [114.55291, -7.55611], [114.37445, -7.57038]]}}, {"type": "Feature", "properties": {"name": "Java Back-arc Thrust", "segment": "Waru", "region": "Java", "mmax": 6.8, "sliprate_m": "1", "length_km": 59.0, "type": "R45S"}, "geometry": {"type": "MultiLineString", "coordinates": [[[112.36624, -7.34023], [112.35286, -7.34142], [112.32222, -7.33993], [112.29961, -7.33815], [112.27314, -7.33666], [112.24846, -7.33696], [112.23061, -7.33636], [112.21128, -7.33874], [112.18421, -7.34618], [112.16071, -7.35718]], [[112.68747, -7.32952], [112.67141, -7.32476], [112.64761, -7.32179], [112.62382, -7.32238], [112.59943, -7.32417], [112.57087, -7.32417], [112.53756, -7.32], [112.50068, -7.31762], [112.46677, -7.31643], [112.42751, -7.32119], [112.39717, -7.32833], [112.36981, -7.33844]]]}}, {"type": "Feature", "properties": {"name": "RMKS", "segment": "Brakas", "region": "Java", "mmax": 7.1, "sliprate_m": "1", "length_km": 135.0, "type": "SS-LL90"}, "geometry": {"type": "LineString", "coordinates": [[115.2964, -7.19384], [115.1316, -7.17736], [115.00352, -7.17055], [114.83671, -7.16658], [114.67481, -7.15237], [114.51362, -7.13303], [114.39919, -7.12151], [114.29209, -7.11769], [114.20307, -7.11105], [114.09479, -7.09056]]}}, {"type": "Feature", "properties": {"name": "RMKS", "segment": "Sumenep", "region": "Java", "mmax": 6.9, "sliprate_m": "1", "length_km": 44.0, "type": "SS-LL90"}, "geometry": {"type": "LineString", "coordinates": [[114.04949, -7.07179], [114.01903, -7.06512], [113.97763, -7.05703], [113.95288, -7.05465], [113.93194, -7.0537], [113.91529, -7.04799], [113.89578, -7.04133], [113.86651, -7.03943], [113.77656, -7.04323], [113.74801, -7.04656], [113.72041, -7.04418], [113.69966, -7.03895], [113.66302, -7.03847]]}}, {"type": "Feature", "properties": {"name": "Java Back-arc Thrust", "segment": "Selat Madura2", "region": "Java", "mmax": 6.9, "sliprate_m": "0.5", "length_km": 134.0, "type": "R45S"}, "geometry": {"type": "LineString", "coordinates": [[114.53205, -7.45547], [114.38928, -7.45547], [114.17751, -7.49117], [113.98477, -7.51734], [113.6112, -7.53638], [113.47557, -7.56493], [113.34708, -7.61966]]}}, {"type": "Feature", "properties": {"name": "Java Back-arc Thrust", "segment": "Selat Madura1", "region": "Java", "mmax": 6.5, "sliprate_m": "0.5", "length_km": 38.0, "type": "R45S"}, "geometry": {"type": "LineString", "coordinates": [[113.1712, -7.46623], [113.06485, -7.4671], [112.93325, -7.45005], [112.83787, -7.42454]]}}, {"type": "Feature", "properties": {"name": "Cipamingkis Fault", "segment": "Cipamingkis", "region": "Java", "mmax": 6.1, "sliprate_m": "0.1", "length_km": 28.0, "type": "SS90"}, "geometry": {"type": "LineString", "coordinates": [[107.1998, -7.00918], [107.18338, -7.06485], [107.1691, -7.11839], [107.15483, -7.1598], [107.14126, -7.1962], [107.12913, -7.21904], [107.10628, -7.24189]]}}, {"type": "Feature", "properties": {"name": "Muria Fault", "segment": "Muria", "region": "Java", "mmax": 6.6, "sliprate_m": "1", "length_km": 30.0, "type": "N60"}, "geometry": {"type": "LineString", "coordinates": [[110.85437, -6.73082], [110.85749, -6.71477], [110.85616, -6.70184], [110.85661, -6.68935], [110.8584, -6.67107], [110.86509, -6.65591], [110.86866, -6.6461], [110.88739, -6.63273], [110.89498, -6.62337], [110.8981, -6.61088], [110.90123, -6.60108], [110.90479, -6.5935], [110.90836, -6.57923], [110.90881, -6.57254], [110.9106, -6.56674], [110.91015, -6.55649], [110.91238, -6.54802], [110.9155, -6.54177], [110.91595, -6.53687], [110.91461, -6.53107], [110.9106, -6.52572], [110.90927, -6.51814], [110.90347, -6.50387], [110.89233, -6.48469]]}}, {"type": "Feature", "properties": {"name": "Cileunyi-Tanjungsari Fault", "segment": "Cileunyi-Tanjungsari", "region": "Java", "mmax": 6.5, "sliprate_m": "0.4", "length_km": 35.0, "type": "SS90"}, "geometry": {"type": "LineString", "coordinates": [[107.64628, -7.01278], [107.68316, -6.99137], [107.70874, -6.97679], [107.74919, -6.94586], [107.7779, -6.92551], [107.81978, -6.90029], [107.83929, -6.88792], [107.8607, -6.88221], [107.87213, -6.87602], [107.87736, -6.86698], [107.89878, -6.85698], [107.91162, -6.84937]]}}, {"type": "Feature", "properties": {"name": "Cicalengka Fault", "segment": "Cicalengka", "region": "Java", "mmax": 6.5, "sliprate_m": "0.1", "length_km": 34.0, "type": "SS90"}, "geometry": {"type": "LineString", "coordinates": [[107.68433, -7.132], [107.73491, -7.08362], [107.77999, -7.03964], [107.81847, -6.99896], [107.84926, -6.97257], [107.87785, -6.94068], [107.89104, -6.9088]]}}, {"type": "Feature", "properties": {"name": "Cianjur Fault", "segment": "Cianjur 1", "region": "Java", "mmax": 5.6, "sliprate_m": "0.1", "length_km": 9.0, "type": "SS90"}, "geometry": {"type": "LineString", "coordinates": [[107.07851, -6.77823], [107.08964, -6.79156], [107.09308, -6.80132], [107.12318, -6.84599]]}}, {"type": "Feature", "properties": {"name": "Cianjur Fault", "segment": "Cianjur 2", "region": "Java", "mmax": 5.6, "sliprate_m": "0.1", "length_km": 5.0, "type": "SS90"}, "geometry": {"type": "LineString", "coordinates": [[107.09322, -6.83637], [107.13225, -6.81768]]}}, {"type": "Feature", "properties": {"name": "Bawean", "segment": "Masalembo", "region": "Java", "mmax": 7.7, "sliprate_m": "2", "length_km": 152.0, "type": "SS90"}, "geometry": {"type": "LineString", "coordinates": [[113.30962, -6.40616], [114.10311, -5.94914], [114.50739, -5.69804]]}}, {"type": "Feature", "properties": {"name": "Muria Fault Zone", "segment": "Muria West 15", "region": "Java", "mmax": 7.5, "sliprate_m": "2", "length_km": 69.0, "type": "SS90"}, "geometry": {"type": "LineString", "coordinates": [[112.02034, -5.97361], [112.14904, -5.90342], [112.26213, -5.83322], [112.36548, -5.78057], [112.44153, -5.73377], [112.52148, -5.67917], [112.53902, -5.66357]]}}, {"type": "Feature", "properties": {"name": "RMKS", "segment": "Lasem", "region": "Java", "mmax": 6.9, "sliprate_m": "0.1", "length_km": 34.0, "type": "R45S"}, "geometry": {"type": "LineString", "coordinates": [[112.01059, -6.66974], [111.9092, -6.69704], [111.7337, -6.69899], [111.69275, -6.69899], [111.69275, -6.69899]]}}, {"type": "Feature", "properties": {"name": "RMKS", "segment": "Tuban1", "region": "Java", "mmax": 7.2, "sliprate_m": "0.1", "length_km": 68.0, "type": "R45S"}, "geometry": {"type": "LineString", "coordinates": [[112.58777, -6.68534], [112.51953, -6.70289], [112.47078, -6.71459], [112.39668, -6.72629], [112.31673, -6.73994], [112.25433, -6.74969], [112.18414, -6.75359], [112.14124, -6.76139], [112.09249, -6.76919], [112.04569, -6.77699], [112.00864, -6.78284], [111.99499, -6.78479]]}}, {"type": "Feature", "properties": {"name": "Bawean", "segment": "South Bawean", "region": "Java", "mmax": 7.4, "sliprate_m": "1", "length_km": 89.0, "type": "SS90"}, "geometry": {"type": "LineString", "coordinates": [[112.50003, -6.4143], [112.50003, -6.4143], [112.71062, -6.2817], [112.88221, -6.07501], [113.07721, -5.86052]]}}, {"type": "Feature", "properties": {"name": "Bawean", "segment": "East Bawean", "region": "Java", "mmax": 7.5, "sliprate_m": "0.1", "length_km": 103.0, "type": "R45SE"}, "geometry": {"type": "LineString", "coordinates": [[113.18445, -6.05161], [113.12986, -6.10621], [113.05186, -6.19396], [112.94266, -6.27585], [112.83932, -6.34605], [112.70477, -6.4221], [112.60922, -6.45525], [112.47078, -6.4806], [112.39278, -6.49035]]}}, {"type": "Feature", "properties": {"name": "JS-2 Ridge", "segment": "JS-2 Ridge", "region": "Java", "mmax": 7.2, "sliprate_m": "0.1", "length_km": 67.0, "type": "R45N"}, "geometry": {"type": "LineString", "coordinates": [[113.16495, -6.54885], [113.22735, -6.5235], [113.28, -6.5118], [113.34045, -6.50985], [113.34045, -6.50985], [113.40285, -6.5235], [113.46329, -6.5274], [113.52959, -6.53325], [113.61929, -6.5352], [113.76164, -6.53325]]}}, {"type": "Feature", "properties": {"name": "JS-1 Ridge", "segment": "JS-1 Ridge South", "region": "Java", "mmax": 7.0, "sliprate_m": "0.1", "length_km": 42.0, "type": "R45NW"}, "geometry": {"type": "LineString", "coordinates": [[112.80812, -6.54105], [112.92316, -6.4923], [113.00896, -6.4533], [113.00896, -6.4533], [113.08306, -6.4143], [113.16105, -6.3831]]}}, {"type": "Feature", "properties": {"name": "JS-1 Ridge", "segment": "JS-1 Ridge North", "region": "Java", "mmax": 6.5, "sliprate_m": "0.1", "length_km": 18.0, "type": "R45SE"}, "geometry": {"type": "LineString", "coordinates": [[113.06161, -6.27975], [112.99726, -6.3051], [112.94071, -6.3402], [112.91926, -6.35385], [112.91926, -6.35385]]}}, {"type": "Feature", "properties": {"name": "Muria Fault Zone", "segment": "Muria Offshore1", "region": "Java", "mmax": 7.5, "sliprate_m": "1", "length_km": 108.0, "type": "SS90"}, "geometry": {"type": "LineString", "coordinates": [[112.00474, -5.98336], [112.00474, -5.98336], [111.8663, -6.04966], [111.74735, -6.08866], [111.58161, -6.19201], [111.37491, -6.3441], [111.37491, -6.3441], [111.28132, -6.40845], [111.16286, -6.46987], [111.16286, -6.46987]]}}, {"type": "Feature", "properties": {"name": "Cimandiri", "segment": "Cisokan", "region": "Java", "mmax": 6.8, "sliprate_m": "0.1", "length_km": 35.0, "type": "R45S"}, "geometry": {"type": "LineString", "coordinates": [[107.39245, -6.85659], [107.38699, -6.85962], [107.38129, -6.85881], [107.37502, -6.8576], [107.36441, -6.85153], [107.35633, -6.8484], [107.34344, -6.84224], [107.32312, -6.83706], [107.31451, -6.83847], [107.30904, -6.83847], [107.30329, -6.83889], [107.29502, -6.84127], [107.28843, -6.84422], [107.28198, -6.84646], [107.2744, -6.84885], [107.26444, -6.85235], [107.25364, -6.85263], [107.24789, -6.8539], [107.24186, -6.8553], [107.23218, -6.86245], [107.22643, -6.86848], [107.22167, -6.87171], [107.21563, -6.87732], [107.20904, -6.88433], [107.19656, -6.89836], [107.18562, -6.91182], [107.18113, -6.92024], [107.15199, -6.93333], [107.12208, -6.94363], [107.10975, -6.94929]]}}, {"type": "Feature", "properties": {"name": "Cimandiri", "segment": "Citatah", "region": "Java", "mmax": 6.3, "sliprate_m": "0.1", "length_km": 16.0, "type": "R45S"}, "geometry": {"type": "LineString", "coordinates": [[107.46167, -6.83439], [107.46073, -6.83429], [107.45942, -6.83439], [107.45803, -6.83485], [107.45674, -6.83502], [107.45543, -6.83515], [107.45109, -6.8355], [107.44806, -6.83591], [107.44467, -6.83626], [107.44235, -6.83641], [107.43982, -6.83662], [107.43573, -6.83788], [107.42573, -6.84258], [107.4184, -6.84687], [107.3968, -6.85764], [107.38359, -6.86269], [107.37368, -6.86319], [107.36408, -6.86491], [107.35458, -6.86804], [107.34953, -6.87007], [107.34367, -6.87199], [107.31772, -6.87684]]}}]}